     2.11           N: GPS NAV DATA                         RINEX VERSION / TYPE
teqc  2019Feb25                         20221121 12:25:14UTCPGM / RUN BY / DATE
OSX ker:10.11.6|Core i5|gcc 4.3 -m64|OSX ker:10.10+|=+      COMMENT
    4.6566D-09  1.4901D-08 -5.9605D-08 -1.1921D-07          ION ALPHA
    7.9872D+04  8.1920D+04 -6.5536D+04 -4.5875D+05          ION BETA
    9.313225746155D-10-3.552713678801D-15   589824     1540 DELTA-UTC: A0,A1,T,W
                                                            END OF HEADER
14 09  7 16 14  0  0.0-7.918616756797D-05 5.570655048359D-12 0.000000000000D+00
    5.700000000000D+01-5.350000000000D+01 4.133386457851D-09-2.695028827271D+00
   -2.693384885788D-06 4.634028417058D-03 4.464760422707D-06 5.153625774384D+03
    3.960000000000D+05 1.396983861923D-07 8.588585040469D-01-5.401670932770D-08
    9.882287926787D-01 3.063750000000D+02-2.167116872271D+00-8.018191132702D-09
   -1.546492989069D-10 1.000000000000D+00 1.540000000000D+03 0.000000000000D+00
    2.000000000000D+00 0.000000000000D+00-9.313225746155D-09 5.700000000000D+01
    3.894420000000D+05 4.000000000000D+00
11 09  7 16 14  0  0.0-1.084851101041D-05-1.591615728103D-12 0.000000000000D+00
    6.100000000000D+01 2.728125000000D+01 6.013821928394D-09 1.199871130534D+00
    1.439824700356D-06 9.504477959126D-03 9.907409548759D-06 5.153695299149D+03
    3.960000000000D+05-1.527369022369D-07-1.490817192463D+00 2.793967723846D-08
    8.889029953834D-01 1.491875000000D+02 7.059924900267D-01-8.789294680831D-09
   -3.453715289676D-10 1.000000000000D+00 1.540000000000D+03 0.000000000000D+00
    2.000000000000D+00 0.000000000000D+00-1.164153218269D-08 6.100000000000D+01
    3.913020000000D+05 4.000000000000D+00
17 09  7 16 14  0  0.0 7.079495117068D-05 2.387423592154D-12 0.000000000000D+00
    4.200000000000D+01-2.206250000000D+01 4.509473551960D-09-2.184120342773D+00
   -1.026317477226D-06 4.581496934406D-03 7.811933755875D-06 5.153702943802D+03
    3.960000000000D+05-7.636845111847D-08-2.304031341662D+00-5.774199962616D-08
    9.597233072537D-01 2.288437500000D+02-2.632245017833D+00-7.884614140113D-09
   -1.228622605635D-10 1.000000000000D+00 1.540000000000D+03 0.000000000000D+00
    2.000000000000D+00 0.000000000000D+00-1.024454832077D-08 4.200000000000D+01
    3.915720000000D+05 4.000000000000D+00
12 09  7 16 14  0  0.0-2.497443929315D-04 6.139089236967D-12 0.000000000000D+00
    1.600000000000D+01-1.821875000000D+01 4.535188908822D-09 1.363690908983D+00
   -9.946525096893D-07 3.242169157602D-03 6.949529051781D-06 5.153614276886D+03
    3.960000000000D+05 8.195638656616D-08 2.920053533025D+00 4.097819328308D-08
    9.677805041254D-01 2.451875000000D+02-6.397202778202D-01-7.968546207649D-09
    1.614352958566D-10 1.000000000000D+00 1.540000000000D+03 0.000000000000D+00
    2.000000000000D+00 0.000000000000D+00-1.164153218269D-08 1.600000000000D+01
    3.922020000000D+05 4.000000000000D+00
30 09  7 16 14  0  0.0 1.614312641323D-04 2.955857780762D-12 0.000000000000D+00
    2.100000000000D+01-1.596875000000D+01 4.924490839096D-09-1.145655023713D+00
   -7.748603820801D-07 1.164948858786D-02 7.266178727150D-06 5.153565090179D+03
    3.960000000000D+05-1.247972249985D-07 2.871506985700D+00 2.551823854446D-07
    9.528516504159D-01 2.342812500000D+02 1.427642941893D+00-8.311417632477D-09
    1.767930784271D-10 1.000000000000D+00 1.540000000000D+03 0.000000000000D+00
    2.000000000000D+00 0.000000000000D+00-8.381903171539D-09 2.100000000000D+01
    3.951720000000D+05 4.000000000000D+00
32 09  7 16 14  0  0.0 2.310574054718D-04-6.139089236967D-12 0.000000000000D+00
    1.450000000000D+02 8.928125000000D+01 4.555546899671D-09 2.121336552354D+00
    4.390254616737D-06 1.322529860772D-02 4.632398486137D-06 5.153779895782D+03
    3.960000000000D+05 1.639127731323D-07-1.420835690024D-01-2.980232238770D-08
    9.635949097101D-01 2.921250000000D+02-1.143783040092D+00-8.067836057755D-09
    5.821671067396D-11 1.000000000000D+00 1.540000000000D+03 0.000000000000D+00
    2.000000000000D+00 0.000000000000D+00-3.259629011154D-09 1.450000000000D+02
    3.956520000000D+05 4.000000000000D+00
26 09  7 16 16  0  0.0 6.470922380686D-05 1.136868377216D-13 0.000000000000D+00
    1.200000000000D+01-5.012500000000D+01 3.898376668750D-09 2.238335059823D+00
   -2.905726432800D-06 2.029212820344D-02 4.485249519348D-06 5.154909543991D+03
    4.032000000000D+05-3.911554813385D-08 8.761362819300D-01-3.948807716370D-07
    9.925686401022D-01 3.112187500000D+02 1.024786874098D+00-7.629603517897D-09
   -6.464554988949D-11 1.000000000000D+00 1.540000000000D+03 0.000000000000D+00
    2.000000000000D+00 0.000000000000D+00-6.519258022308D-09 1.200000000000D+01
    3.960180000000D+05 4.000000000000D+00
22 09  7 16 16  0  0.0 1.953435130417D-04-7.958078640513D-13 0.000000000000D+00
    6.600000000000D+01 7.990625000000D+01 5.087711923623D-09-8.352659671288D-01
    4.328787326813D-06 5.181823275052D-03 4.328787326813D-06 5.153660049438D+03
    4.032000000000D+05 2.793967723846D-08-1.932772622023D-01 7.078051567078D-08
    9.395609621311D-01 2.873437500000D+02-1.898626263462D+00-8.528212377134D-09
    1.992940156814D-10 1.000000000000D+00 1.540000000000D+03 0.000000000000D+00
    4.000000000000D+00 0.000000000000D+00-1.769512891769D-08 6.600000000000D+01
    3.960180000000D+05 4.000000000000D+00
27 09  7 16 16  0  0.0 6.611272692680D-05 3.183231456205D-12 0.000000000000D+00
    7.800000000000D+01-5.581250000000D+01 4.205889477893D-09-1.474144394111D+00
   -2.507120370865D-06 2.128780388739D-02 8.143484592438D-06 5.153769575119D+03
    4.032000000000D+05-6.891787052155D-08 1.809732763205D+00 5.494803190231D-07
    9.747973073063D-01 2.300312500000D+02-1.572101046376D+00-7.887114244252D-09
    5.964534161075D-11 1.000000000000D+00 1.540000000000D+03 0.000000000000D+00
    2.000000000000D+00 0.000000000000D+00-4.190951585770D-09 7.800000000000D+01
    3.960180000000D+05 4.000000000000D+00
18 09  7 16 16  0  0.0-3.951368853450D-05 3.183231456205D-12 0.000000000000D+00
    8.600000000000D+01 7.618750000000D+01 5.069496879179D-09 1.889848455088D-01
    4.034489393234D-06 1.069708296563D-02 4.421919584274D-06 5.153611183167D+03
    4.032000000000D+05 2.980232238770D-08-1.988578280039D-01 2.328306436539D-07
    9.418933699595D-01 2.875937500000D+02-2.406452018226D+00-8.555713522667D-09
    1.342913080577D-10 1.000000000000D+00 1.540000000000D+03 0.000000000000D+00
    2.000000000000D+00 0.000000000000D+00-1.071020960808D-08 8.600000000000D+01
    3.960180000000D+05 4.000000000000D+00
14 09  7 16 16  0  0.0-7.914565503597D-05 5.570655048359D-12 0.000000000000D+00
    5.800000000000D+01-4.496875000000D+01 4.121957410357D-09-1.645032515807D+00
   -2.225860953331D-06 4.634261480533D-03 4.358589649200D-06 5.153624006271D+03
    4.032000000000D+05 1.303851604462D-08 8.588002374828D-01 6.519258022308D-08
    9.882283728212D-01 3.076562500000D+02-2.166905340168D+00-7.970689154054D-09
   -2.071514858337D-11 1.000000000000D+00 1.540000000000D+03 0.000000000000D+00
    2.000000000000D+00 0.000000000000D+00-9.313225746155D-09 5.800000000000D+01
    3.960180000000D+05 4.000000000000D+00
 9 09  7 16 16  0  0.0 6.683217361569D-05 2.046363078989D-12 0.000000000000D+00
    9.800000000000D+01-7.268750000000D+01 4.128743407307D-09 1.466016239861D+00
   -4.202127456665D-06 2.074628486298D-02 8.180737495422D-06 5.153637695312D+03
    4.032000000000D+05-1.359730958939D-07 1.833928339825D+00-5.383044481277D-07
    9.767541986930D-01 2.343750000000D+02 1.493477839610D+00-7.871756461682D-09
    1.060758470562D-10 1.000000000000D+00 1.540000000000D+03 0.000000000000D+00
    2.000000000000D+00 0.000000000000D+00-5.587935447693D-09 9.800000000000D+01
    3.960180000000D+05 4.000000000000D+00
12 09  7 16 16  0  0.0-2.497001551092D-04 6.139089236967D-12 0.000000000000D+00
    3.200000000000D+01-1.228125000000D+01 4.526617123201D-09 2.413424075131D+00
   -5.569308996201D-07 3.241549828090D-03 7.633119821548D-06 5.153617458344D+03
    4.032000000000D+05 4.842877388000D-08 2.919996205654D+00 1.024454832077D-07
    9.677816525161D-01 2.348125000000D+02-6.392369589452D-01-7.953188425078D-09
    1.753644474903D-10 1.000000000000D+00 1.540000000000D+03 0.000000000000D+00
    2.000000000000D+00 0.000000000000D+00-1.164153218269D-08 3.200000000000D+01
    3.960180000000D+05 4.000000000000D+00
17 09  7 16 16  0  0.0 7.081218063831D-05 2.387423592154D-12 0.000000000000D+00
    7.400000000000D+01-1.684375000000D+01 4.677337687032D-09-1.134210573154D+00
   -9.480863809586D-07 4.581695538945D-03 7.653608918190D-06 5.153700712204D+03
    4.032000000000D+05 1.806765794754D-07-2.304087355332D+00-9.499490261078D-08
    9.597214698286D-01 2.355312500000D+02-2.631991102068D+00-8.001761876929D-09
   -3.110843864848D-10 1.000000000000D+00 1.540000000000D+03 0.000000000000D+00
    2.000000000000D+00 0.000000000000D+00-1.024454832077D-08 7.400000000000D+01
    3.960180000000D+05 4.000000000000D+00
30 09  7 16 16  0  0.0 1.614522188902D-04 2.955857780762D-12 0.000000000000D+00
    7.200000000000D+01-1.193750000000D+01 4.977350183757D-09-9.537836594321D-02
   -5.066394805908D-07 1.164997904561D-02 7.331371307373D-06 5.153566200256D+03
    4.032000000000D+05-1.247972249985D-07 2.871446261434D+00 1.117587089539D-07
    9.528528134358D-01 2.335937500000D+02 1.427616686902D+00-8.409278851647D-09
    2.253665302777D-10 1.000000000000D+00 1.540000000000D+03 0.000000000000D+00
    2.000000000000D+00 0.000000000000D+00-8.381903171539D-09 7.200000000000D+01
    3.960180000000D+05 4.000000000000D+00
